SL-14 R/B               
1 16792U 86046B   25361.46627275  .00000669  00000+0  74275-4 0  9994
2 16792  82.4819 148.4062 0024575 105.8682 254.5245 14.85501065115680
SL-14 R/B               
1 16882U 86055B   25361.52414110  .00000561  00000+0  61977-4 0  9999
2 16882  82.5192 194.4800 0018191 207.0778 175.4230 14.85545028108655
AJISAI (EGS)            
1 16908U 86061A   25361.52816301 -.00000095  00000+0  14305-4 0  9999
2 16908  50.0115 315.2444 0011313 103.0094   5.0078 12.44514447459012
COSMOS 1812             
1 17295U 87003A   25361.19824433  .00123297  00000+0  70110-3 0  9998
2 17295  82.4865 276.3327 0005975  66.3416 293.8477 15.78592857132936
SL-14 R/B               
1 17567U 87024B   25361.45854477  .00000710  00000+0  78123-4 0  9990
2 17567  82.5279 160.6273 0019294 136.6648 223.6090 14.86040003 77401
COSMOS 1833             
1 17589U 87027A   25361.51309281  .00000308  00000+0  19036-3 0  9992
2 17589  70.9168 117.7220 0023209 311.1255  48.7862 14.13029775   124
SL-16 R/B               
1 17590U 87027B   25361.48414330 -.00000163  00000+0 -57272-4 0  9998
2 17590  71.0037  68.6499 0007177 244.3077 115.7306 14.17156413  5116
SL-14 R/B               
1 17912U 87038B   25361.48371697  .00000606  00000+0  67498-4 0  9997
2 17912  82.5009   4.8122 0020453  46.7309 313.5609 14.85275263 68516
COSMOS 1844             
1 17973U 87041A   25360.98803452  .00000354  00000+0  20868-3 0  9990
2 17973  70.8968 187.5187 0029438 134.5558 225.7975 14.14532911993303
SL-14 R/B               
1 18153U 87055B   25361.40565280  .00000546  00000+0  60231-4 0  9990
2 18153  82.4990  57.1663 0019237 251.1688 108.7442 14.85536074 59208
COSMOS 1867             
1 18187U 87060A   25361.48353922  .00000025  00000+0  47193-4 0  9993
2 18187  65.0092 148.9136 0013685 272.5129  87.4389 14.31488586  9604
SL-14 R/B               
1 18749U 88001B   25361.46359876  .00000555  00000+0  61369-4 0  9994
2 18749  82.5132 263.2996 0019480 114.9932 245.3310 14.85439010 31300
