CCSDS_OMM_VERS = 2.0
CREATION_DATE  = 
ORIGINATOR     = 

OBJECT_NAME    = SL-14 R/B
OBJECT_ID      = 1986-046B
CENTER_NAME    = EARTH
REF_FRAME      = TEME
TIME_SYSTEM    = UTC
MEAN_ELEMENT_THEORY = SGP/SGP4

EPOCH          = 2025-12-27T11:11:25.965600
MEAN_MOTION    = 14.85501065
ECCENTRICITY   = .0024575
INCLINATION    = 82.4819
RA_OF_ASC_NODE = 148.4062
ARG_OF_PERICENTER = 105.8682
MEAN_ANOMALY   = 254.5245

EPHEMERIS_TYPE = 0
CLASSIFICATION_TYPE = U
NORAD_CAT_ID   = 16792
ELEMENT_SET_NO = 999
REV_AT_EPOCH   = 11568
BSTAR          = .74275E-4
MEAN_MOTION_DOT = .669E-5
MEAN_MOTION_DDOT = 0

CCSDS_OMM_VERS = 2.0
CREATION_DATE  = 
ORIGINATOR     = 

OBJECT_NAME    = SL-14 R/B
OBJECT_ID      = 1986-055B
CENTER_NAME    = EARTH
REF_FRAME      = TEME
TIME_SYSTEM    = UTC
MEAN_ELEMENT_THEORY = SGP/SGP4

EPOCH          = 2025-12-27T12:34:45.791040
MEAN_MOTION    = 14.85545028
ECCENTRICITY   = .0018191
INCLINATION    = 82.5192
RA_OF_ASC_NODE = 194.4800
ARG_OF_PERICENTER = 207.0778
MEAN_ANOMALY   = 175.4230

EPHEMERIS_TYPE = 0
CLASSIFICATION_TYPE = U
NORAD_CAT_ID   = 16882
ELEMENT_SET_NO = 999
REV_AT_EPOCH   = 10865
BSTAR          = .61977E-4
MEAN_MOTION_DOT = .561E-5
MEAN_MOTION_DDOT = 0

CCSDS_OMM_VERS = 2.0
CREATION_DATE  = 
ORIGINATOR     = 

OBJECT_NAME    = AJISAI (EGS)
OBJECT_ID      = 1986-061A
CENTER_NAME    = EARTH
REF_FRAME      = TEME
TIME_SYSTEM    = UTC
MEAN_ELEMENT_THEORY = SGP/SGP4

EPOCH          = 2025-12-27T12:40:33.284064
MEAN_MOTION    = 12.44514447
ECCENTRICITY   = .0011313
INCLINATION    = 50.0115
RA_OF_ASC_NODE = 315.2444
ARG_OF_PERICENTER = 103.0094
MEAN_ANOMALY   = 5.0078

EPHEMERIS_TYPE = 0
CLASSIFICATION_TYPE = U
NORAD_CAT_ID   = 16908
ELEMENT_SET_NO = 999
REV_AT_EPOCH   = 45901
BSTAR          = .14305E-4
MEAN_MOTION_DOT = -.95E-6
MEAN_MOTION_DDOT = 0

CCSDS_OMM_VERS = 2.0
CREATION_DATE  = 
ORIGINATOR     = 

OBJECT_NAME    = COSMOS 1812
OBJECT_ID      = 1987-003A
CENTER_NAME    = EARTH
REF_FRAME      = TEME
TIME_SYSTEM    = UTC
MEAN_ELEMENT_THEORY = SGP/SGP4

EPOCH          = 2025-12-27T04:45:28.310112
MEAN_MOTION    = 15.78592857
ECCENTRICITY   = .0005975
INCLINATION    = 82.4865
RA_OF_ASC_NODE = 276.3327
ARG_OF_PERICENTER = 66.3416
MEAN_ANOMALY   = 293.8477

EPHEMERIS_TYPE = 0
CLASSIFICATION_TYPE = U
NORAD_CAT_ID   = 17295
ELEMENT_SET_NO = 999
REV_AT_EPOCH   = 13293
BSTAR          = .7011E-3
MEAN_MOTION_DOT = .123297E-2
MEAN_MOTION_DDOT = 0

CCSDS_OMM_VERS = 2.0
CREATION_DATE  = 
ORIGINATOR     = 

OBJECT_NAME    = SL-14 R/B
OBJECT_ID      = 1987-024B
CENTER_NAME    = EARTH
REF_FRAME      = TEME
TIME_SYSTEM    = UTC
MEAN_ELEMENT_THEORY = SGP/SGP4

EPOCH          = 2025-12-27T11:00:18.268128
MEAN_MOTION    = 14.86040003
ECCENTRICITY   = .0019294
INCLINATION    = 82.5279
RA_OF_ASC_NODE = 160.6273
ARG_OF_PERICENTER = 136.6648
MEAN_ANOMALY   = 223.6090

EPHEMERIS_TYPE = 0
CLASSIFICATION_TYPE = U
NORAD_CAT_ID   = 17567
ELEMENT_SET_NO = 999
REV_AT_EPOCH   = 7740
BSTAR          = .78123E-4
MEAN_MOTION_DOT = .71E-5
MEAN_MOTION_DDOT = 0

CCSDS_OMM_VERS = 2.0
CREATION_DATE  = 
ORIGINATOR     = 

OBJECT_NAME    = COSMOS 1833
OBJECT_ID      = 1987-027A
CENTER_NAME    = EARTH
REF_FRAME      = TEME
TIME_SYSTEM    = UTC
MEAN_ELEMENT_THEORY = SGP/SGP4

EPOCH          = 2025-12-27T12:18:51.218784
MEAN_MOTION    = 14.13029775
ECCENTRICITY   = .0023209
INCLINATION    = 70.9168
RA_OF_ASC_NODE = 117.7220
ARG_OF_PERICENTER = 311.1255
MEAN_ANOMALY   = 48.7862

EPHEMERIS_TYPE = 0
CLASSIFICATION_TYPE = U
NORAD_CAT_ID   = 17589
ELEMENT_SET_NO = 999
REV_AT_EPOCH   = 12
BSTAR          = .19036E-3
MEAN_MOTION_DOT = .308E-5
MEAN_MOTION_DDOT = 0

CCSDS_OMM_VERS = 2.0
CREATION_DATE  = 
ORIGINATOR     = 

OBJECT_NAME    = SL-16 R/B
OBJECT_ID      = 1987-027B
CENTER_NAME    = EARTH
REF_FRAME      = TEME
TIME_SYSTEM    = UTC
MEAN_ELEMENT_THEORY = SGP/SGP4

EPOCH          = 2025-12-27T11:37:09.981120
MEAN_MOTION    = 14.17156413
ECCENTRICITY   = .0007177
INCLINATION    = 71.0037
RA_OF_ASC_NODE = 68.6499
ARG_OF_PERICENTER = 244.3077
MEAN_ANOMALY   = 115.7306

EPHEMERIS_TYPE = 0
CLASSIFICATION_TYPE = U
NORAD_CAT_ID   = 17590
ELEMENT_SET_NO = 999
REV_AT_EPOCH   = 511
BSTAR          = -.57272E-4
MEAN_MOTION_DOT = -.163E-5
MEAN_MOTION_DDOT = 0

CCSDS_OMM_VERS = 2.0
CREATION_DATE  = 
ORIGINATOR     = 

OBJECT_NAME    = SL-14 R/B
OBJECT_ID      = 1987-038B
CENTER_NAME    = EARTH
REF_FRAME      = TEME
TIME_SYSTEM    = UTC
MEAN_ELEMENT_THEORY = SGP/SGP4

EPOCH          = 2025-12-27T11:36:33.146208
MEAN_MOTION    = 14.85275263
ECCENTRICITY   = .0020453
INCLINATION    = 82.5009
RA_OF_ASC_NODE = 4.8122
ARG_OF_PERICENTER = 46.7309
MEAN_ANOMALY   = 313.5609

EPHEMERIS_TYPE = 0
CLASSIFICATION_TYPE = U
NORAD_CAT_ID   = 17912
ELEMENT_SET_NO = 999
REV_AT_EPOCH   = 6851
BSTAR          = .67498E-4
MEAN_MOTION_DOT = .606E-5
MEAN_MOTION_DDOT = 0

CCSDS_OMM_VERS = 2.0
CREATION_DATE  = 
ORIGINATOR     = 

OBJECT_NAME    = COSMOS 1844
OBJECT_ID      = 1987-041A
CENTER_NAME    = EARTH
REF_FRAME      = TEME
TIME_SYSTEM    = UTC
MEAN_ELEMENT_THEORY = SGP/SGP4

EPOCH          = 2025-12-26T23:42:46.182528
MEAN_MOTION    = 14.14532911
ECCENTRICITY   = .00294383
INCLINATION    = 70.8968
RA_OF_ASC_NODE = 187.5187
ARG_OF_PERICENTER = 134.5558
MEAN_ANOMALY   = 225.7975

EPHEMERIS_TYPE = 0
CLASSIFICATION_TYPE = U
NORAD_CAT_ID   = 17973
ELEMENT_SET_NO = 999
REV_AT_EPOCH   = 99330
BSTAR          = .208681E-3
MEAN_MOTION_DOT = .354E-5
MEAN_MOTION_DDOT = 0

CCSDS_OMM_VERS = 2.0
CREATION_DATE  = 
ORIGINATOR     = 

OBJECT_NAME    = SL-14 R/B
OBJECT_ID      = 1987-055B
CENTER_NAME    = EARTH
REF_FRAME      = TEME
TIME_SYSTEM    = UTC
MEAN_ELEMENT_THEORY = SGP/SGP4

EPOCH          = 2025-12-27T09:44:08.401920
MEAN_MOTION    = 14.85536074
ECCENTRICITY   = .0019237
INCLINATION    = 82.4990
RA_OF_ASC_NODE = 57.1663
ARG_OF_PERICENTER = 251.1688
MEAN_ANOMALY   = 108.7442

EPHEMERIS_TYPE = 0
CLASSIFICATION_TYPE = U
NORAD_CAT_ID   = 18153
ELEMENT_SET_NO = 999
REV_AT_EPOCH   = 5920
BSTAR          = .60231E-4
MEAN_MOTION_DOT = .546E-5
MEAN_MOTION_DDOT = 0

CCSDS_OMM_VERS = 2.0
CREATION_DATE  = 
ORIGINATOR     = 

OBJECT_NAME    = COSMOS 1867
OBJECT_ID      = 1987-060A
CENTER_NAME    = EARTH
REF_FRAME      = TEME
TIME_SYSTEM    = UTC
MEAN_ELEMENT_THEORY = SGP/SGP4

EPOCH          = 2025-12-27T11:36:17.788608
MEAN_MOTION    = 14.31488586
ECCENTRICITY   = .0013685
INCLINATION    = 65.0092
RA_OF_ASC_NODE = 148.9136
ARG_OF_PERICENTER = 272.5129
MEAN_ANOMALY   = 87.4389

EPHEMERIS_TYPE = 0
CLASSIFICATION_TYPE = U
NORAD_CAT_ID   = 18187
ELEMENT_SET_NO = 999
REV_AT_EPOCH   = 960
BSTAR          = .47193E-4
MEAN_MOTION_DOT = .25E-6
MEAN_MOTION_DDOT = 0

CCSDS_OMM_VERS = 2.0
CREATION_DATE  = 
ORIGINATOR     = 

OBJECT_NAME    = SL-14 R/B
OBJECT_ID      = 1988-001B
CENTER_NAME    = EARTH
REF_FRAME      = TEME
TIME_SYSTEM    = UTC
MEAN_ELEMENT_THEORY = SGP/SGP4

EPOCH          = 2025-12-27T11:07:34.932864
MEAN_MOTION    = 14.85439010
ECCENTRICITY   = .001948
INCLINATION    = 82.5132
RA_OF_ASC_NODE = 263.2996
ARG_OF_PERICENTER = 114.9932
MEAN_ANOMALY   = 245.3310

EPHEMERIS_TYPE = 0
CLASSIFICATION_TYPE = U
NORAD_CAT_ID   = 18749
ELEMENT_SET_NO = 999
REV_AT_EPOCH   = 3130
BSTAR          = .61369E-4
MEAN_MOTION_DOT = .555E-5
MEAN_MOTION_DDOT = 0

